[{"OBJECT_NAME":"STARLINK-31587","OBJECT_ID":"2024-076G","EPOCH":"2026-03-08T20:36:15.484320","MEAN_MOTION":15.27566597,"ECCENTRICITY":0.00016366,"INCLINATION":43.0037,"RA_OF_ASC_NODE":13.8613,"ARG_OF_PERICENTER":266.6818,"MEAN_ANOMALY":93.3846,"EPHEMERIS_TYPE":0,"CLASSIFICATION_TYPE":"U","NORAD_CAT_ID":59570,"ELEMENT_SET_NO":999,"REV_AT_EPOCH":10639,"BSTAR":9.7555693e-5,"MEAN_MOTION_DOT":2.422e-5,"MEAN_MOTION_DDOT":0},{"OBJECT_NAME":"239ALFEROV (RS61S)","OBJECT_ID":"2025-155F","EPOCH":"2026-03-09T21:46:33.382848","MEAN_MOTION":15.29933217,"ECCENTRICITY":0.00084878,"INCLINATION":97.4469,"RA_OF_ASC_NODE":37.6373,"ARG_OF_PERICENTER":151.5904,"MEAN_ANOMALY":208.58,"EPHEMERIS_TYPE":0,"CLASSIFICATION_TYPE":"U","NORAD_CAT_ID":64881,"ELEMENT_SET_NO":999,"REV_AT_EPOCH":6561,"BSTAR":0.00067233359,"MEAN_MOTION_DOT":0.00019457,"MEAN_MOTION_DDOT":0}]
